{
  "type": "FeatureCollection",
  "features": [
    {
      "type": "Feature",
      "properties": {
        "norad_id": 34874,
        "name": "COSMOS 2251 DEB",
        "group": "cosmos-2251-debris",
        "lat": 10.663264909662058,
        "lon": -102.42287946704322,
        "alt_km": 754.383484425306,
        "timestamp": "2025-12-08T23:34:04.367095+00:00",
        "meta_object_name": "COSMOS 2251 DEB",
        "meta_object_id": "1993-036ACM",
        "meta_epoch": "2025-12-08T12:49:57.989280",
        "meta_mean_motion": 14.36277608,
        "meta_eccentricity": 0.00511791,
        "meta_inclination": 74.0397,
        "meta_ra_of_asc_node": 81.487,
        "meta_arg_of_pericenter": 108.123,
        "meta_mean_anomaly": 268.2931,
        "meta_ephemeris_type": 0,
        "meta_classification_type": "U",
        "meta_norad_cat_id": 34874,
        "meta_element_set_no": 999,
        "meta_rev_at_epoch": 86984,
        "meta_bstar": 0.0015220199,
        "meta_mean_motion_dot": 4.491e-05,
        "meta_mean_motion_ddot": 0,
        "tle_line1": "1 34874U 93036ACM 25342.53469895  .00004491  00000+0  15220-2 0  9991",
        "tle_line2": "2 34874  74.0397  81.4870 0051179 108.1230 268.2931 14.36277608869844"
      },
      "geometry": {
        "type": "Point",
        "coordinates": [
          -102.42287946704322,
          10.663264909662058
        ]
      }
    },
    {
      "type": "Feature",
      "properties": {
        "norad_id": 34875,
        "name": "COSMOS 2251 DEB",
        "group": "cosmos-2251-debris",
        "lat": 47.950837119873874,
        "lon": -176.25032515367224,
        "alt_km": 730.5608003102434,
        "timestamp": "2025-12-08T23:34:04.367106+00:00",
        "meta_object_name": "COSMOS 2251 DEB",
        "meta_object_id": "1993-036ACN",
        "meta_epoch": "2025-12-08T13:39:27.124416",
        "meta_mean_motion": 14.48904255,
        "meta_eccentricity": 0.00160631,
        "meta_inclination": 74.0434,
        "meta_ra_of_asc_node": 166.0286,
        "meta_arg_of_pericenter": 289.8947,
        "meta_mean_anomaly": 127.5873,
        "meta_ephemeris_type": 0,
        "meta_classification_type": "U",
        "meta_norad_cat_id": 34875,
        "meta_element_set_no": 999,
        "meta_rev_at_epoch": 87695,
        "meta_bstar": 0.00077642273,
        "meta_mean_motion_dot": 2.917e-05,
        "meta_mean_motion_ddot": 0,
        "tle_line1": "1 34875U 93036ACN 25342.56906394  .00002917  00000+0  77642-3 0  9993",
        "tle_line2": "2 34875  74.0434 166.0286 0016063 289.8947 127.5873 14.48904255876953"
      },
      "geometry": {
        "type": "Point",
        "coordinates": [
          -176.25032515367224,
          47.950837119873874
        ]
      }
    },
    {
      "type": "Feature",
      "properties": {
        "norad_id": 34878,
        "name": "COSMOS 2251 DEB",
        "group": "cosmos-2251-debris",
        "lat": 20.231463752219096,
        "lon": -132.79861928635222,
        "alt_km": 1251.4697314717905,
        "timestamp": "2025-12-08T23:34:04.367116+00:00",
        "meta_object_name": "COSMOS 2251 DEB",
        "meta_object_id": "1993-036ACR",
        "meta_epoch": "2025-12-08T05:05:50.858880",
        "meta_mean_motion": 13.44183746,
        "meta_eccentricity": 0.04352873,
        "meta_inclination": 73.9654,
        "meta_ra_of_asc_node": 54.5057,
        "meta_arg_of_pericenter": 38.9282,
        "meta_mean_anomaly": 352.7685,
        "meta_ephemeris_type": 0,
        "meta_classification_type": "U",
        "meta_norad_cat_id": 34878,
        "meta_element_set_no": 999,
        "meta_rev_at_epoch": 81212,
        "meta_bstar": 0.00091067154,
        "meta_mean_motion_dot": 9.15e-06,
        "meta_mean_motion_ddot": 0,
        "tle_line1": "1 34878U 93036ACR 25342.21239420  .00000915  00000+0  91067-3 0  9990",
        "tle_line2": "2 34878  73.9654  54.5057 0435287  38.9282 352.7685 13.44183746812124"
      },
      "geometry": {
        "type": "Point",
        "coordinates": [
          -132.79861928635222,
          20.231463752219096
        ]
      }
    },
    {
      "type": "Feature",
      "properties": {
        "norad_id": 34882,
        "name": "COSMOS 2251 DEB",
        "group": "cosmos-2251-debris",
        "lat": -2.3761393941063558,
        "lon": 53.45529161943647,
        "alt_km": 749.386391573772,
        "timestamp": "2025-12-08T23:34:04.367127+00:00",
        "meta_object_name": "COSMOS 2251 DEB",
        "meta_object_id": "1993-036ACV",
        "meta_epoch": "2025-12-08T03:01:24.890592",
        "meta_mean_motion": 14.6158268,
        "meta_eccentricity": 0.00826438,
        "meta_inclination": 74.0464,
        "meta_ra_of_asc_node": 234.4112,
        "meta_arg_of_pericenter": 2.5077,
        "meta_mean_anomaly": 357.6486,
        "meta_ephemeris_type": 0,
        "meta_classification_type": "U",
        "meta_norad_cat_id": 34882,
        "meta_element_set_no": 999,
        "meta_rev_at_epoch": 88457,
        "meta_bstar": 0.00031247398,
        "meta_mean_motion_dot": 1.597e-05,
        "meta_mean_motion_ddot": 0,
        "tle_line1": "1 34882U 93036ACV 25342.12598253  .00001597  00000+0  31247-3 0  9998",
        "tle_line2": "2 34882  74.0464 234.4112 0082643   2.5077 357.6486 14.61582680884575"
      },
      "geometry": {
        "type": "Point",
        "coordinates": [
          53.45529161943647,
          -2.3761393941063558
        ]
      }
    },
    {
      "type": "Feature",
      "properties": {
        "norad_id": 34883,
        "name": "COSMOS 2251 DEB",
        "group": "cosmos-2251-debris",
        "lat": 8.32338826452222,
        "lon": 72.09757485251991,
        "alt_km": 749.1124436554728,
        "timestamp": "2025-12-08T23:34:04.367137+00:00",
        "meta_object_name": "COSMOS 2251 DEB",
        "meta_object_id": "1993-036ACW",
        "meta_epoch": "2025-12-08T05:19:45.369696",
        "meta_mean_motion": 14.51243218,
        "meta_eccentricity": 0.00954596,
        "meta_inclination": 74.1998,
        "meta_ra_of_asc_node": 71.1386,
        "meta_arg_of_pericenter": 257.1998,
        "meta_mean_anomaly": 101.8484,
        "meta_ephemeris_type": 0,
        "meta_classification_type": "U",
        "meta_norad_cat_id": 34883,
        "meta_element_set_no": 999,
        "meta_rev_at_epoch": 86374,
        "meta_bstar": 0.0057169955,
        "meta_mean_motion_dot": 0.00024168,
        "meta_mean_motion_ddot": 0,
        "tle_line1": "1 34883U 93036ACW 25342.22205289  .00024168  00000+0  57170-2 0  9995",
        "tle_line2": "2 34883  74.1998  71.1386 0095459 257.1998 101.8484 14.51243218863740"
      },
      "geometry": {
        "type": "Point",
        "coordinates": [
          72.09757485251991,
          8.32338826452222
        ]
      }
    },
    {
      "type": "Feature",
      "properties": {
        "norad_id": 34884,
        "name": "COSMOS 2251 DEB",
        "group": "cosmos-2251-debris",
        "lat": 37.33198406612159,
        "lon": -128.35626829968948,
        "alt_km": 594.316117043948,
        "timestamp": "2025-12-08T23:34:04.367147+00:00",
        "meta_object_name": "COSMOS 2251 DEB",
        "meta_object_id": "1993-036ACX",
        "meta_epoch": "2025-12-08T11:43:26.802624",
        "meta_mean_motion": 14.89738245,
        "meta_eccentricity": 0.00023114,
        "meta_inclination": 74.0174,
        "meta_ra_of_asc_node": 65.2578,
        "meta_arg_of_pericenter": 107.0273,
        "meta_mean_anomaly": 268.2318,
        "meta_ephemeris_type": 0,
        "meta_classification_type": "U",
        "meta_norad_cat_id": 34884,
        "meta_element_set_no": 999,
        "meta_rev_at_epoch": 87742,
        "meta_bstar": 0.0031450476,
        "meta_mean_motion_dot": 0.00030238,
        "meta_mean_motion_ddot": 0,
        "tle_line1": "1 34884U 93036ACX 25342.48850466  .00030238  00000+0  31450-2 0  9995",
        "tle_line2": "2 34884  74.0174  65.2578 0002311 107.0273 268.2318 14.89738245877421"
      },
      "geometry": {
        "type": "Point",
        "coordinates": [
          -128.35626829968948,
          37.33198406612159
        ]
      }
    },
    {
      "type": "Feature",
      "properties": {
        "norad_id": 34885,
        "name": "COSMOS 2251 DEB",
        "group": "cosmos-2251-debris",
        "lat": -5.940165172650151,
        "lon": 11.804323193617527,
        "alt_km": 724.043942895496,
        "timestamp": "2025-12-08T23:34:04.367158+00:00",
        "meta_object_name": "COSMOS 2251 DEB",
        "meta_object_id": "1993-036ACY",
        "meta_epoch": "2025-12-08T14:43:40.410624",
        "meta_mean_motion": 14.51471282,
        "meta_eccentricity": 0.00153263,
        "meta_inclination": 74.0307,
        "meta_ra_of_asc_node": 190.7902,
        "meta_arg_of_pericenter": 276.0709,
        "meta_mean_anomaly": 146.3024,
        "meta_ephemeris_type": 0,
        "meta_classification_type": "U",
        "meta_norad_cat_id": 34885,
        "meta_element_set_no": 999,
        "meta_rev_at_epoch": 87419,
        "meta_bstar": 0.001029006,
        "meta_mean_motion_dot": 4.091e-05,
        "meta_mean_motion_ddot": 0,
        "tle_line1": "1 34885U 93036ACY 25342.61366216  .00004091  00000+0  10290-2 0  9993",
        "tle_line2": "2 34885  74.0307 190.7902 0015326 276.0709 146.3024 14.51471282874191"
      },
      "geometry": {
        "type": "Point",
        "coordinates": [
          11.804323193617527,
          -5.940165172650151
        ]
      }
    }
  ]
}